{
  "type": "FeatureCollection",
  "features": [
    {
      "type": "Feature",
      "properties": {
        "norad_id": 41556,
        "name": "ZIYUAN 3-2 (ZY 3-2)",
        "group": "resource",
        "lat": 61.132293081808406,
        "lon": -105.57666778559647,
        "alt_km": 501.0920337485968,
        "timestamp": "2025-12-12T14:39:17.629120+00:00",
        "meta_object_name": "ZIYUAN 3-2 (ZY 3-2)",
        "meta_object_id": "2016-033A",
        "meta_epoch": "2025-12-12T07:49:25.385664",
        "meta_mean_motion": 15.21493791,
        "meta_eccentricity": 0.00124416,
        "meta_inclination": 97.4041,
        "meta_ra_of_asc_node": 60.4997,
        "meta_arg_of_pericenter": 250.5939,
        "meta_mean_anomaly": 109.3953,
        "meta_ephemeris_type": 0,
        "meta_classification_type": "U",
        "meta_norad_cat_id": 41556,
        "meta_element_set_no": 999,
        "meta_rev_at_epoch": 52957,
        "meta_bstar": 0.00046229916,
        "meta_mean_motion_dot": 0.00010358,
        "meta_mean_motion_ddot": 0,
        "tle_line1": "1 41556U 16033A   25346.32598826  .00010358  00000+0  46230-3 0  9991",
        "tle_line2": "2 41556  97.4041  60.4997 0012441 250.5939 109.3953 15.21493791529578"
      },
      "geometry": {
        "type": "Point",
        "coordinates": [
          -105.57666778559647,
          61.132293081808406
        ]
      }
    },
    {
      "type": "Feature",
      "properties": {
        "norad_id": 41599,
        "name": "CARTOSAT-2C",
        "group": "resource",
        "lat": 61.988834245764444,
        "lon": 29.5697381802563,
        "alt_km": 494.4651880972024,
        "timestamp": "2025-12-12T14:39:17.629129+00:00",
        "meta_object_name": "CARTOSAT-2C",
        "meta_object_id": "2016-040A",
        "meta_epoch": "2025-12-12T06:28:33.338784",
        "meta_mean_motion": 15.19288437,
        "meta_eccentricity": 0.00109094,
        "meta_inclination": 97.4765,
        "meta_ra_of_asc_node": 43.525,
        "meta_arg_of_pericenter": 67.0016,
        "meta_mean_anomaly": 293.2368,
        "meta_ephemeris_type": 0,
        "meta_classification_type": "U",
        "meta_norad_cat_id": 41599,
        "meta_element_set_no": 999,
        "meta_rev_at_epoch": 52533,
        "meta_bstar": 0.00032307176,
        "meta_mean_motion_dot": 6.759e-05,
        "meta_mean_motion_ddot": 0,
        "tle_line1": "1 41599U 16040A   25346.26983031  .00006759  00000+0  32307-3 0  9995",
        "tle_line2": "2 41599  97.4765  43.5250 0010909  67.0016 293.2368 15.19288437525335"
      },
      "geometry": {
        "type": "Point",
        "coordinates": [
          29.5697381802563,
          61.988834245764444
        ]
      }
    },
    {
      "type": "Feature",
      "properties": {
        "norad_id": 41601,
        "name": "SKYSAT-C1",
        "group": "resource",
        "lat": 66.9134224992596,
        "lon": -139.65739890019407,
        "alt_km": 461.8312532788441,
        "timestamp": "2025-12-12T14:39:17.629139+00:00",
        "meta_object_name": "SKYSAT-C1",
        "meta_object_id": "2016-040C",
        "meta_epoch": "2025-12-12T01:37:54.884640",
        "meta_mean_motion": 15.32569887,
        "meta_eccentricity": 0.0002447,
        "meta_inclination": 96.983,
        "meta_ra_of_asc_node": 23.1193,
        "meta_arg_of_pericenter": 16.8765,
        "meta_mean_anomaly": 343.2559,
        "meta_ephemeris_type": 0,
        "meta_classification_type": "U",
        "meta_norad_cat_id": 41601,
        "meta_element_set_no": 999,
        "meta_rev_at_epoch": 52917,
        "meta_bstar": 0.00044349387,
        "meta_mean_motion_dot": 0.00013887,
        "meta_mean_motion_ddot": 0,
        "tle_line1": "1 41601U 16040C   25346.06799635  .00013887  00000+0  44349-3 0  9991",
        "tle_line2": "2 41601  96.9830  23.1193 0002447  16.8765 343.2559 15.32569887529177"
      },
      "geometry": {
        "type": "Point",
        "coordinates": [
          -139.65739890019407,
          66.9134224992596
        ]
      }
    },
    {
      "type": "Feature",
      "properties": {
        "norad_id": 41603,
        "name": "LAPAN-A3",
        "group": "resource",
        "lat": -74.44334664886425,
        "lon": 137.3963161861725,
        "alt_km": 477.2014448646787,
        "timestamp": "2025-12-12T14:39:17.629148+00:00",
        "meta_object_name": "LAPAN-A3",
        "meta_object_id": "2016-040E",
        "meta_epoch": "2025-12-12T07:16:01.049088",
        "meta_mean_motion": 15.31545408,
        "meta_eccentricity": 0.00097005,
        "meta_inclination": 97.1433,
        "meta_ra_of_asc_node": 343.8749,
        "meta_arg_of_pericenter": 335.7049,
        "meta_mean_anomaly": 24.3734,
        "meta_ephemeris_type": 0,
        "meta_classification_type": "U",
        "meta_norad_cat_id": 41603,
        "meta_element_set_no": 999,
        "meta_rev_at_epoch": 52619,
        "meta_bstar": 0.00020920896,
        "meta_mean_motion_dot": 6.307e-05,
        "meta_mean_motion_ddot": 0,
        "tle_line1": "1 41603U 16040E   25346.30278992  .00006307  00000+0  20921-3 0  9997",
        "tle_line2": "2 41603  97.1433 343.8749 0009700 335.7049  24.3734 15.31545408526190"
      },
      "geometry": {
        "type": "Point",
        "coordinates": [
          137.3963161861725,
          -74.44334664886425
        ]
      }
    },
    {
      "type": "Feature",
      "properties": {
        "norad_id": 41604,
        "name": "BIROS",
        "group": "resource",
        "lat": 51.566639066309286,
        "lon": 9.039688117013771,
        "alt_km": 298.95405991568805,
        "timestamp": "2025-12-12T14:39:17.629158+00:00",
        "meta_object_name": "BIROS",
        "meta_object_id": "2016-040F",
        "meta_epoch": "2025-12-12T02:20:56.988384",
        "meta_mean_motion": 15.89451278,
        "meta_eccentricity": 0.00033015,
        "meta_inclination": 97.07,
        "meta_ra_of_asc_node": 17.5048,
        "meta_arg_of_pericenter": 153.1943,
        "meta_mean_anomaly": 206.9502,
        "meta_ephemeris_type": 0,
        "meta_classification_type": "U",
        "meta_norad_cat_id": 41604,
        "meta_element_set_no": 999,
        "meta_rev_at_epoch": 52862,
        "meta_bstar": 0.0006906007,
        "meta_mean_motion_dot": 0.00199195,
        "meta_mean_motion_ddot": 1.6197971e-05,
        "tle_line1": "1 41604U 16040F   25346.09788181  .00199195  16198-4  69060-3 0  9995",
        "tle_line2": "2 41604  97.0700  17.5048 0003301 153.1943 206.9502 15.89451278528625"
      },
      "geometry": {
        "type": "Point",
        "coordinates": [
          9.039688117013771,
          51.566639066309286
        ]
      }
    },
    {
      "type": "Feature",
      "properties": {
        "norad_id": 41727,
        "name": "GAOFEN-3",
        "group": "resource",
        "lat": 72.79590176999469,
        "lon": -36.32178513624459,
        "alt_km": 743.1871867110549,
        "timestamp": "2025-12-12T14:39:17.629166+00:00",
        "meta_object_name": "GAOFEN-3",
        "meta_object_id": "2016-049A",
        "meta_epoch": "2025-12-12T07:38:54.621600",
        "meta_mean_motion": 14.42213478,
        "meta_eccentricity": 0.00014455,
        "meta_inclination": 98.4043,
        "meta_ra_of_asc_node": 351.9112,
        "meta_arg_of_pericenter": 62.0255,
        "meta_mean_anomaly": 298.1081,
        "meta_ephemeris_type": 0,
        "meta_classification_type": "U",
        "meta_norad_cat_id": 41727,
        "meta_element_set_no": 999,
        "meta_rev_at_epoch": 49171,
        "meta_bstar": 6.0767365e-05,
        "meta_mean_motion_dot": 1.57e-06,
        "meta_mean_motion_ddot": 0,
        "tle_line1": "1 41727U 16049A   25346.31868775  .00000157  00000+0  60767-4 0  9998",
        "tle_line2": "2 41727  98.4043 351.9112 0001445  62.0255 298.1081 14.42213478491714"
      },
      "geometry": {
        "type": "Point",
        "coordinates": [
          -36.32178513624459,
          72.79590176999469
        ]
      }
    },
    {
      "type": "Feature",
      "properties": {
        "norad_id": 41771,
        "name": "SKYSAT-C4",
        "group": "resource",
        "lat": 42.23074671704429,
        "lon": 5.458135059447358,
        "alt_km": 436.1377979685103,
        "timestamp": "2025-12-12T14:39:17.629176+00:00",
        "meta_object_name": "SKYSAT-C4",
        "meta_object_id": "2016-058B",
        "meta_epoch": "2025-12-12T00:27:20.747232",
        "meta_mean_motion": 15.42215688,
        "meta_eccentricity": 0.0001466,
        "meta_inclination": 96.9379,
        "meta_ra_of_asc_node": 11.2413,
        "meta_arg_of_pericenter": 133.9929,
        "meta_mean_anomaly": 226.1441,
        "meta_ephemeris_type": 0,
        "meta_classification_type": "U",
        "meta_norad_cat_id": 41771,
        "meta_element_set_no": 999,
        "meta_rev_at_epoch": 51656,
        "meta_bstar": 0.00046677,
        "meta_mean_motion_dot": 0.00019985,
        "meta_mean_motion_ddot": 0,
        "tle_line1": "1 41771U 16058B   25346.01899013  .00019985  00000+0  46677-3 0  9995",
        "tle_line2": "2 41771  96.9379  11.2413 0001466 133.9929 226.1441 15.42215688516565"
      },
      "geometry": {
        "type": "Point",
        "coordinates": [
          5.458135059447358,
          42.23074671704429
        ]
      }
    }
  ]
}